{
  "type": "FeatureCollection",
  "features": [
    {
      "type": "Feature",
      "properties": {
        "norad_id": 34540,
        "name": "IRIDIUM 33 DEB",
        "group": "iridium-33-debris",
        "lat": 37.473904102588754,
        "lon": 125.26420038981716,
        "alt_km": 631.050876797497,
        "timestamp": "2025-12-11T15:53:39.928580+00:00",
        "meta_object_name": "IRIDIUM 33 DEB",
        "meta_object_id": "1997-051JH",
        "meta_epoch": "2025-12-11T03:55:52.274208",
        "meta_mean_motion": 14.7526328,
        "meta_eccentricity": 0.00161455,
        "meta_inclination": 86.3106,
        "meta_ra_of_asc_node": 308.3273,
        "meta_arg_of_pericenter": 164.7687,
        "meta_mean_anomaly": 212.0228,
        "meta_ephemeris_type": 0,
        "meta_classification_type": "U",
        "meta_norad_cat_id": 34540,
        "meta_element_set_no": 999,
        "meta_rev_at_epoch": 88998,
        "meta_bstar": 0.0024696788,
        "meta_mean_motion_dot": 0.00016792,
        "meta_mean_motion_ddot": 0,
        "tle_line1": "1 34540U 97051JH  25345.16379947  .00016792  00000+0  24697-2 0  9997",
        "tle_line2": "2 34540  86.3106 308.3273 0016145 164.7687 212.0228 14.75263280889981"
      },
      "geometry": {
        "type": "Point",
        "coordinates": [
          125.26420038981716,
          37.473904102588754
        ]
      }
    },
    {
      "type": "Feature",
      "properties": {
        "norad_id": 34648,
        "name": "IRIDIUM 33 DEB",
        "group": "iridium-33-debris",
        "lat": 5.119261475923023,
        "lon": 102.05771348590638,
        "alt_km": 935.773383476273,
        "timestamp": "2025-12-11T15:53:39.928591+00:00",
        "meta_object_name": "IRIDIUM 33 DEB",
        "meta_object_id": "1997-051JZ",
        "meta_epoch": "2025-12-11T06:32:44.536416",
        "meta_mean_motion": 14.11432861,
        "meta_eccentricity": 0.01832227,
        "meta_inclination": 86.39,
        "meta_ra_of_asc_node": 282.539,
        "meta_arg_of_pericenter": 303.446,
        "meta_mean_anomaly": 54.9318,
        "meta_ephemeris_type": 0,
        "meta_classification_type": "U",
        "meta_norad_cat_id": 34648,
        "meta_element_set_no": 999,
        "meta_rev_at_epoch": 84940,
        "meta_bstar": 0.01579567,
        "meta_mean_motion_dot": 0.00033631,
        "meta_mean_motion_ddot": 0,
        "tle_line1": "1 34648U 97051JZ  25345.27273769  .00033631  00000+0  15796-1 0  9993",
        "tle_line2": "2 34648  86.3900 282.5390 0183222 303.4460  54.9318 14.11432861849406"
      },
      "geometry": {
        "type": "Point",
        "coordinates": [
          102.05771348590638,
          5.119261475923023
        ]
      }
    },
    {
      "type": "Feature",
      "properties": {
        "norad_id": 34651,
        "name": "IRIDIUM 33 DEB",
        "group": "iridium-33-debris",
        "lat": 2.0535261954462594,
        "lon": -39.09786259038938,
        "alt_km": 719.4438500212436,
        "timestamp": "2025-12-11T15:53:39.928601+00:00",
        "meta_object_name": "IRIDIUM 33 DEB",
        "meta_object_id": "1997-051KC",
        "meta_epoch": "2025-12-10T20:31:39.361152",
        "meta_mean_motion": 14.25764503,
        "meta_eccentricity": 0.0142095,
        "meta_inclination": 86.2836,
        "meta_ra_of_asc_node": 141.3789,
        "meta_arg_of_pericenter": 209.9439,
        "meta_mean_anomaly": 149.3571,
        "meta_ephemeris_type": 0,
        "meta_classification_type": "U",
        "meta_norad_cat_id": 34651,
        "meta_element_set_no": 999,
        "meta_rev_at_epoch": 85869,
        "meta_bstar": 0.0051973,
        "meta_mean_motion_dot": 0.00013755,
        "meta_mean_motion_ddot": 0,
        "tle_line1": "1 34651U 97051KC  25344.85531668  .00013755  00000+0  51973-2 0  9998",
        "tle_line2": "2 34651  86.2836 141.3789 0142095 209.9439 149.3571 14.25764503858697"
      },
      "geometry": {
        "type": "Point",
        "coordinates": [
          -39.09786259038938,
          2.0535261954462594
        ]
      }
    },
    {
      "type": "Feature",
      "properties": {
        "norad_id": 34652,
        "name": "IRIDIUM 33 DEB",
        "group": "iridium-33-debris",
        "lat": 86.29652706638319,
        "lon": 62.84550237355543,
        "alt_km": 694.5425693926009,
        "timestamp": "2025-12-11T15:53:39.928611+00:00",
        "meta_object_name": "IRIDIUM 33 DEB",
        "meta_object_id": "1997-051KD",
        "meta_epoch": "2025-12-11T07:34:05.057184",
        "meta_mean_motion": 14.62038303,
        "meta_eccentricity": 0.00260123,
        "meta_inclination": 86.3317,
        "meta_ra_of_asc_node": 340.6357,
        "meta_arg_of_pericenter": 303.4759,
        "meta_mean_anomaly": 121.0337,
        "meta_ephemeris_type": 0,
        "meta_classification_type": "U",
        "meta_norad_cat_id": 34652,
        "meta_element_set_no": 999,
        "meta_rev_at_epoch": 88463,
        "meta_bstar": 0.0018117648,
        "meta_mean_motion_dot": 9.158e-05,
        "meta_mean_motion_ddot": 0,
        "tle_line1": "1 34652U 97051KD  25345.31533631  .00009158  00000+0  18118-2 0  9999",
        "tle_line2": "2 34652  86.3317 340.6357 0026012 303.4759 121.0337 14.62038303884636"
      },
      "geometry": {
        "type": "Point",
        "coordinates": [
          62.84550237355543,
          86.29652706638319
        ]
      }
    },
    {
      "type": "Feature",
      "properties": {
        "norad_id": 34690,
        "name": "IRIDIUM 33 DEB",
        "group": "iridium-33-debris",
        "lat": -21.018585053618335,
        "lon": 36.06494839710316,
        "alt_km": 709.7884484539363,
        "timestamp": "2025-12-11T15:53:39.928622+00:00",
        "meta_object_name": "IRIDIUM 33 DEB",
        "meta_object_id": "1997-051KM",
        "meta_epoch": "2025-12-11T02:55:05.414016",
        "meta_mean_motion": 14.5508579,
        "meta_eccentricity": 0.00110418,
        "meta_inclination": 86.378,
        "meta_ra_of_asc_node": 37.6945,
        "meta_arg_of_pericenter": 34.4543,
        "meta_mean_anomaly": 354.2887,
        "meta_ephemeris_type": 0,
        "meta_classification_type": "U",
        "meta_norad_cat_id": 34690,
        "meta_element_set_no": 999,
        "meta_rev_at_epoch": 88071,
        "meta_bstar": 0.00065168739,
        "meta_mean_motion_dot": 2.833e-05,
        "meta_mean_motion_ddot": 0,
        "tle_line1": "1 34690U 97051KM  25345.12159044  .00002833  00000+0  65169-3 0  9994",
        "tle_line2": "2 34690  86.3780  37.6945 0011041  34.4543 354.2887 14.55085790880715"
      },
      "geometry": {
        "type": "Point",
        "coordinates": [
          36.06494839710316,
          -21.018585053618335
        ]
      }
    },
    {
      "type": "Feature",
      "properties": {
        "norad_id": 34693,
        "name": "IRIDIUM 33 DEB",
        "group": "iridium-33-debris",
        "lat": 73.55433367511579,
        "lon": 111.71569720755605,
        "alt_km": 470.58909701438824,
        "timestamp": "2025-12-11T15:53:39.928632+00:00",
        "meta_object_name": "IRIDIUM 33 DEB",
        "meta_object_id": "1997-051KQ",
        "meta_epoch": "2025-12-10T08:38:30.910272",
        "meta_mean_motion": 15.27015384,
        "meta_eccentricity": 0.00144202,
        "meta_inclination": 86.3054,
        "meta_ra_of_asc_node": 305.0067,
        "meta_arg_of_pericenter": 56.9182,
        "meta_mean_anomaly": 94.3145,
        "meta_ephemeris_type": 0,
        "meta_classification_type": "U",
        "meta_norad_cat_id": 34693,
        "meta_element_set_no": 999,
        "meta_rev_at_epoch": 88878,
        "meta_bstar": 0.0067186448,
        "meta_mean_motion_dot": 0.00182624,
        "meta_mean_motion_ddot": 0,
        "tle_line1": "1 34693U 97051KQ  25344.36007998  .00182624  00000+0  67186-2 0  9999",
        "tle_line2": "2 34693  86.3054 305.0067 0014420  56.9182  94.3145 15.27015384888787"
      },
      "geometry": {
        "type": "Point",
        "coordinates": [
          111.71569720755605,
          73.55433367511579
        ]
      }
    },
    {
      "type": "Feature",
      "properties": {
        "norad_id": 34696,
        "name": "IRIDIUM 33 DEB",
        "group": "iridium-33-debris",
        "lat": 77.48531630558064,
        "lon": 45.518389498575814,
        "alt_km": 672.2749149115907,
        "timestamp": "2025-12-11T15:53:39.928642+00:00",
        "meta_object_name": "IRIDIUM 33 DEB",
        "meta_object_id": "1997-051KT",
        "meta_epoch": "2025-12-11T02:33:26.982720",
        "meta_mean_motion": 14.64953116,
        "meta_eccentricity": 0.00741481,
        "meta_inclination": 86.185,
        "meta_ra_of_asc_node": 28.2818,
        "meta_arg_of_pericenter": 173.0229,
        "meta_mean_anomaly": 217.0787,
        "meta_ephemeris_type": 0,
        "meta_classification_type": "U",
        "meta_norad_cat_id": 34696,
        "meta_element_set_no": 999,
        "meta_rev_at_epoch": 86649,
        "meta_bstar": 0.0075396538,
        "meta_mean_motion_dot": 0.00042238,
        "meta_mean_motion_ddot": 0,
        "tle_line1": "1 34696U 97051KT  25345.10656230  .00042238  00000+0  75397-2 0  9993",
        "tle_line2": "2 34696  86.1850  28.2818 0074148 173.0229 217.0787 14.64953116866490"
      },
      "geometry": {
        "type": "Point",
        "coordinates": [
          45.518389498575814,
          77.48531630558064
        ]
      }
    }
  ]
}